{
    "CCSDS_OMM_VERS": "3.0",
    "COMMENT": "GENERATED VIA SPACE-TRACK.ORG API",
    "CREATION_DATE": "2025-11-24T07:26:19",
    "ORIGINATOR": "18 SPCS",
    "OBJECT_NAME": "BEIDOU 3G1",
    "OBJECT_ID": "2018-085A",
    "CENTER_NAME": "EARTH",
    "REF_FRAME": "TEME",
    "TIME_SYSTEM": "UTC",
    "MEAN_ELEMENT_THEORY": "SGP4",
    "EPOCH": "2025-11-24T04:24:39.112128",
    "MEAN_MOTION": "1.00267897",
    "ECCENTRICITY": "0.00018220",
    "INCLINATION": "2.5583",
    "RA_OF_ASC_NODE": "103.5613",
    "ARG_OF_PERICENTER": "48.9526",
    "MEAN_ANOMALY": "117.1072",
    "EPHEMERIS_TYPE": "0",
    "CLASSIFICATION_TYPE": "U",
    "NORAD_CAT_ID": "43683",
    "ELEMENT_SET_NO": "999",
    "REV_AT_EPOCH": "2600",
    "BSTAR": "0.00000000000000",
    "MEAN_MOTION_DOT": "-0.00000257",
    "MEAN_MOTION_DDOT": "0.0000000000000",
    "SEMIMAJOR_AXIS": "42165.822",
    "PERIOD": "1436.153",
    "APOAPSIS": "35795.370",
    "PERIAPSIS": "35780.004",
    "OBJECT_TYPE": "PAYLOAD",
    "RCS_SIZE": "LARGE",
    "COUNTRY_CODE": "PRC",
    "LAUNCH_DATE": "2018-11-01",
    "SITE": "XSC",
    "DECAY_DATE": null,
    "FILE": "4897001",
    "GP_ID": "303367853",
    "TLE_LINE0": "0 BEIDOU 3G1",
    "TLE_LINE1": "1 43683U 18085A   25328.18378602 -.00000257  00000-0  00000+0 0  9995",
    "TLE_LINE2": "2 43683   2.5583 103.5613 0001822  48.9526 117.1072  1.00267897 26002"
}